{
  "type": "FeatureCollection",
  "features": [
    {
      "type": "Feature",
      "properties": {
        "norad_id": 41330,
        "name": "COSMOS 2514 (751)",
        "group": "glo-ops",
        "lat": -25.402610959404406,
        "lon": 152.12756842180795,
        "alt_km": 19103.130047927516,
        "timestamp": "2025-12-12T07:43:20.774516+00:00",
        "meta_object_name": "COSMOS 2514 (751)",
        "meta_object_id": "2016-008A",
        "meta_epoch": "2025-12-11T02:40:55.560288",
        "meta_mean_motion": 2.13102604,
        "meta_eccentricity": 0.00121607,
        "meta_inclination": 65.1347,
        "meta_ra_of_asc_node": 319.4596,
        "meta_arg_of_pericenter": 220.0573,
        "meta_mean_anomaly": 139.8518,
        "meta_ephemeris_type": 0,
        "meta_classification_type": "U",
        "meta_norad_cat_id": 41330,
        "meta_element_set_no": 999,
        "meta_rev_at_epoch": 7661,
        "meta_bstar": 0,
        "meta_mean_motion_dot": -5.2e-07,
        "meta_mean_motion_ddot": 0,
        "tle_line1": "1 41330U 16008A   25345.11175417 -.00000052  00000+0  00000+0 0  9998",
        "tle_line2": "2 41330  65.1347 319.4596 0012160 220.0573 139.8518  2.13102604 76619"
      },
      "geometry": {
        "type": "Point",
        "coordinates": [
          152.12756842180795,
          -25.402610959404406
        ]
      }
    },
    {
      "type": "Feature",
      "properties": {
        "norad_id": 42939,
        "name": "COSMOS 2522 (752)",
        "group": "glo-ops",
        "lat": -24.720237347331004,
        "lon": -174.69272961656753,
        "alt_km": 19138.240957652768,
        "timestamp": "2025-12-12T07:43:20.774527+00:00",
        "meta_object_name": "COSMOS 2522 (752)",
        "meta_object_id": "2017-055A",
        "meta_epoch": "2025-12-10T22:48:12.074400",
        "meta_mean_motion": 2.1310181,
        "meta_eccentricity": 0.00064932,
        "meta_inclination": 64.076,
        "meta_ra_of_asc_node": 198.29,
        "meta_arg_of_pericenter": 225.3551,
        "meta_mean_anomaly": 134.6611,
        "meta_ephemeris_type": 0,
        "meta_classification_type": "U",
        "meta_norad_cat_id": 42939,
        "meta_element_set_no": 999,
        "meta_rev_at_epoch": 6396,
        "meta_bstar": 0,
        "meta_mean_motion_dot": 5.1e-07,
        "meta_mean_motion_ddot": 0,
        "tle_line1": "1 42939U 17055A   25344.95013975  .00000051  00000+0  00000+0 0  9996",
        "tle_line2": "2 42939  64.0760 198.2900 0006493 225.3551 134.6611  2.13101810 63969"
      },
      "geometry": {
        "type": "Point",
        "coordinates": [
          -174.69272961656753,
          -24.720237347331004
        ]
      }
    },
    {
      "type": "Feature",
      "properties": {
        "norad_id": 43508,
        "name": "COSMOS 2527 (756)",
        "group": "glo-ops",
        "lat": 2.134770428905493,
        "lon": 81.1234988136821,
        "alt_km": 19146.38389742357,
        "timestamp": "2025-12-12T07:43:20.774539+00:00",
        "meta_object_name": "COSMOS 2527 (756)",
        "meta_object_id": "2018-053A",
        "meta_epoch": "2025-12-10T21:51:43.881984",
        "meta_mean_motion": 2.13102002,
        "meta_eccentricity": 0.00085787,
        "meta_inclination": 65.4716,
        "meta_ra_of_asc_node": 80.1926,
        "meta_arg_of_pericenter": 224.6583,
        "meta_mean_anomaly": 135.289,
        "meta_ephemeris_type": 0,
        "meta_classification_type": "U",
        "meta_norad_cat_id": 43508,
        "meta_element_set_no": 999,
        "meta_rev_at_epoch": 5826,
        "meta_bstar": 0,
        "meta_mean_motion_dot": -2.3e-07,
        "meta_mean_motion_ddot": 0,
        "tle_line1": "1 43508U 18053A   25344.91092456 -.00000023  00000+0  00000+0 0  9995",
        "tle_line2": "2 43508  65.4716  80.1926 0008578 224.6583 135.2890  2.13102002 58265"
      },
      "geometry": {
        "type": "Point",
        "coordinates": [
          81.1234988136821,
          2.134770428905493
        ]
      }
    },
    {
      "type": "Feature",
      "properties": {
        "norad_id": 43687,
        "name": "COSMOS 2529 (757)",
        "group": "glo-ops",
        "lat": -59.1784748970001,
        "lon": 145.06406554522295,
        "alt_km": 19120.722610014855,
        "timestamp": "2025-12-12T07:43:20.774550+00:00",
        "meta_object_name": "COSMOS 2529 (757)",
        "meta_object_id": "2018-086A",
        "meta_epoch": "2025-12-11T11:27:45.415872",
        "meta_mean_motion": 2.13101904,
        "meta_eccentricity": 0.00072776,
        "meta_inclination": 64.292,
        "meta_ra_of_asc_node": 198.9311,
        "meta_arg_of_pericenter": 254.2169,
        "meta_mean_anomaly": 105.7727,
        "meta_ephemeris_type": 0,
        "meta_classification_type": "U",
        "meta_norad_cat_id": 43687,
        "meta_element_set_no": 999,
        "meta_rev_at_epoch": 5528,
        "meta_bstar": 0,
        "meta_mean_motion_dot": 5.5e-07,
        "meta_mean_motion_ddot": 0,
        "tle_line1": "1 43687U 18086A   25345.47760898  .00000055  00000+0  00000+0 0  9997",
        "tle_line2": "2 43687  64.2920 198.9311 0007277 254.2169 105.7727  2.13101904 55287"
      },
      "geometry": {
        "type": "Point",
        "coordinates": [
          145.06406554522295,
          -59.1784748970001
        ]
      }
    },
    {
      "type": "Feature",
      "properties": {
        "norad_id": 44299,
        "name": "COSMOS 2534 (758)",
        "group": "glo-ops",
        "lat": 52.770102785459585,
        "lon": -121.90159318755488,
        "alt_km": 19141.113197902672,
        "timestamp": "2025-12-12T07:43:20.774561+00:00",
        "meta_object_name": "COSMOS 2534 (758)",
        "meta_object_id": "2019-030A",
        "meta_epoch": "2025-12-10T14:34:24.563136",
        "meta_mean_motion": 2.13102261,
        "meta_eccentricity": 0.0008999,
        "meta_inclination": 64.3653,
        "meta_ra_of_asc_node": 198.9649,
        "meta_arg_of_pericenter": 283.4628,
        "meta_mean_anomaly": 263.2195,
        "meta_ephemeris_type": 0,
        "meta_classification_type": "U",
        "meta_norad_cat_id": 44299,
        "meta_element_set_no": 999,
        "meta_rev_at_epoch": 5090,
        "meta_bstar": 0,
        "meta_mean_motion_dot": 4.7e-07,
        "meta_mean_motion_ddot": 0,
        "tle_line1": "1 44299U 19030A   25344.60722874  .00000047  00000+0  00000+0 0  9994",
        "tle_line2": "2 44299  64.3653 198.9649 0008999 283.4628 263.2195  2.13102261 50901"
      },
      "geometry": {
        "type": "Point",
        "coordinates": [
          -121.90159318755488,
          52.770102785459585
        ]
      }
    },
    {
      "type": "Feature",
      "properties": {
        "norad_id": 44850,
        "name": "COSMOS 2544 (759)",
        "group": "glo-ops",
        "lat": 39.88223442844068,
        "lon": 102.3849712625531,
        "alt_km": 19157.11550146106,
        "timestamp": "2025-12-12T07:43:20.774572+00:00",
        "meta_object_name": "COSMOS 2544 (759)",
        "meta_object_id": "2019-088A",
        "meta_epoch": "2025-12-11T19:03:21.616416",
        "meta_mean_motion": 2.13101808,
        "meta_eccentricity": 0.00136914,
        "meta_inclination": 65.4596,
        "meta_ra_of_asc_node": 79.99,
        "meta_arg_of_pericenter": 249.2614,
        "meta_mean_anomaly": 110.6076,
        "meta_ephemeris_type": 0,
        "meta_classification_type": "U",
        "meta_norad_cat_id": 44850,
        "meta_element_set_no": 999,
        "meta_rev_at_epoch": 4672,
        "meta_bstar": 0,
        "meta_mean_motion_dot": -3.2e-07,
        "meta_mean_motion_ddot": 0,
        "tle_line1": "1 44850U 19088A   25345.79400019 -.00000032  00000+0  00000+0 0  9990",
        "tle_line2": "2 44850  65.4596  79.9900 0013691 249.2614 110.6076  2.13101808 46724"
      },
      "geometry": {
        "type": "Point",
        "coordinates": [
          102.3849712625531,
          39.88223442844068
        ]
      }
    },
    {
      "type": "Feature",
      "properties": {
        "norad_id": 45358,
        "name": "COSMOS 2545 (760)",
        "group": "glo-ops",
        "lat": -60.453678571599156,
        "lon": -163.57754490997945,
        "alt_km": 19106.202975887358,
        "timestamp": "2025-12-12T07:43:20.774583+00:00",
        "meta_object_name": "COSMOS 2545 (760)",
        "meta_object_id": "2020-018A",
        "meta_epoch": "2025-12-10T13:58:04.872576",
        "meta_mean_motion": 2.13102273,
        "meta_eccentricity": 0.00118432,
        "meta_inclination": 64.471,
        "meta_ra_of_asc_node": 319.0455,
        "meta_arg_of_pericenter": 248.8319,
        "meta_mean_anomaly": 111.0396,
        "meta_ephemeris_type": 0,
        "meta_classification_type": "U",
        "meta_norad_cat_id": 45358,
        "meta_element_set_no": 999,
        "meta_rev_at_epoch": 4464,
        "meta_bstar": 0,
        "meta_mean_motion_dot": -5.2e-07,
        "meta_mean_motion_ddot": 0,
        "tle_line1": "1 45358U 20018A   25344.58200084 -.00000052  00000+0  00000+0 0  9997",
        "tle_line2": "2 45358  64.4710 319.0455 0011843 248.8319 111.0396  2.13102273 44648"
      },
      "geometry": {
        "type": "Point",
        "coordinates": [
          -163.57754490997945,
          -60.453678571599156
        ]
      }
    }
  ]
}